NORAD_CAT_ID,OBJECT_NAME,OBJECT_TYPE,EPOCH,MEAN_MOTION,ECCENTRICITY,INCLINATION,RA_OF_ASC_NODE,ARG_OF_PERICENTER,MEAN_ANOMALY,BSTAR,MEAN_MOTION_DOT,MEAN_MOTION_DDOT,TLE_LINE0,TLE_LINE1,TLE_LINE2,SEMIMAJOR_AXIS,PERIOD,APOGEE,PERIGEE,DECAYED
53006.0,STARLINK-4290,PAYLOAD,2022-07-23 22:00:00,15.73239545,0.0001828,53.2189,298.5671,30.2171,41.7727,-0.0004201,-0.00059268,0.0,0 STARLINK-4290,1 53006U 22076W   22204.91667824 -.00059268  00000-0 -42010-3 0  9996,2 53006  53.2189 298.5671 0001828  30.2171  41.7727 15.73239545  1301,6727.781999999997,91.531,350.87699999999984,348.418,0.0
53006.0,STARLINK-4290,PAYLOAD,2022-07-24 14:00:01,15.73205189,0.0001923,53.2194,295.2696,29.4542,220.3688,-0.0003456,-0.00048857,0.0,0 STARLINK-4290,1 53006U 22076W   22205.58334491 -.00048857  00000-0 -34560-3 0  9994,2 53006  53.2194 295.2696 0001923  29.4542 220.3688 15.73205189  1304,6727.88,91.533,351.039,348.452,0.0
53006.0,STARLINK-4290,PAYLOAD,2022-07-24 22:00:00,15.73175344,0.0001943999999999,53.2196,293.6191,32.2241,306.5152,5.0498e-05,6.465e-05,0.0,0 STARLINK-4290,1 53006U 22076W   22205.91667824  .00006465  00000-0  50498-4 0  9996,2 53006  53.2196 293.6191 0001944  32.2241 306.5152 15.73175344  1301,6727.965,91.535,351.13800000000015,348.523,0.0
53006.0,STARLINK-4290,PAYLOAD,2022-07-25 14:00:01,15.73218113,0.0002145,53.2196,290.3217,31.2045,125.3377,-0.00026414,-0.00037559,0.0,0 STARLINK-4290,1 53006U 22076W   22206.58334491 -.00037559  00000-0 -26414-3 0  9991,2 53006  53.2196 290.3217 0002145  31.2045 125.3377 15.73218113  1307,6727.844,91.532,351.152,348.265,0.0
53006.0,STARLINK-4290,PAYLOAD,2022-07-25 22:00:00,15.73194973,0.0001949,53.2191,288.6711,27.7523,217.7285,-0.0001460999999999,-0.00021071,0.0,0 STARLINK-4290,1 53006U 22076W   22206.91667824 -.00021071  00000-0 -14610-3 0  9994,2 53006  53.2191 288.6711 0001949  27.7523 217.7285 15.73194973  1304,6727.91,91.533,351.086,348.463,0.0
53006.0,STARLINK-4290,PAYLOAD,2022-07-26 06:00:00,15.73191775,0.0001827,53.2193,287.0212,31.1549,303.2272,0.00027873,0.00038665,0.0,0 STARLINK-4290,1 53006U 22076W   22207.25001157  .00038665  00000-0  27873-3 0  9993,2 53006  53.2193 287.0212 0001827  31.1549 303.2272 15.73191775  3448,6727.919,91.534,351.01300000000015,348.55400000000014,0.0
53006.0,STARLINK-4290,PAYLOAD,2022-07-26 14:00:01,15.73199985,0.0002103,53.2189,285.3724,27.6647,35.6554,0.00036819,0.00051372,0.0,0 STARLINK-4290,1 53006U 22076W   22207.58334491  .00051372  00000-0  36819-3 0  9999,2 53006  53.2189 285.3724 0002103  27.6647  35.6554 15.73199985  1302,6727.895,91.533,351.175,348.345,0.0
53006.0,STARLINK-4290,PAYLOAD,2022-07-26 22:00:00,15.73251059,0.0002055,53.2195,283.7232,27.9753,124.2883,3.3568e-06,-1.5e-06,0.0,0 STARLINK-4290,1 53006U 22076W   22207.91667824 -.00000150  00000-0  33568-5 0  9994,2 53006  53.2195 283.7232 0002055  27.9753 124.2883 15.73251059  1303,6727.75,91.53,350.997,348.232,0.0
53006.0,STARLINK-4290,PAYLOAD,2022-07-27 06:00:02,15.73286619,0.0002078,53.2197,282.0732,34.2466,207.0613,-0.00056158,-0.00078998,0.0,0 STARLINK-4290,1 53006U 22076W   22208.25002315 -.00078998  00000-0 -56158-3 0  9994,2 53006  53.2197 282.0732 0002078  34.2466 207.0613 15.73286619  3605,6727.648,91.528,350.911,348.115,0.0
53006.0,STARLINK-4290,PAYLOAD,2022-07-27 14:00:01,15.73224041,0.0002366,53.2193,280.4258,31.4313,298.8079,-0.00035299,-0.00049926,0.0,0 STARLINK-4290,1 53006U 22076W   22208.58334491 -.00049926  00000-0 -35299-3 0  9995,2 53006  53.2193 280.4258 0002366  31.4313 298.8079 15.73224041  1306,6727.8269999999975,91.532,351.283,348.1,0.0
53006.0,STARLINK-4290,PAYLOAD,2022-07-27 22:00:00,15.73190022,0.0002138,53.2189,278.775,29.8643,29.3193,0.00011278,0.0001523,0.0,0 STARLINK-4290,1 53006U 22076W   22208.91667824  .00015230  00000-0  11278-3 0  9991,2 53006  53.2189 278.7750 0002138  29.8643  29.3193 15.73190022  1307,6727.924,91.534,351.227,348.35,0.0
53006.0,STARLINK-4290,PAYLOAD,2022-07-28 00:00:00,15.73173619,0.0002084,53.2188,278.3622,29.9949,141.424,0.00043534,0.00060854,0.0,0 STARLINK-4290,1 53006U 22076W   22209.00001157  .00060854  00000-0  43534-3 0  9995,2 53006  53.2188 278.3622 0002084  29.9949 141.4240 15.73173619  3719,6727.97,91.535,351.237,348.43300000000005,0.0
53006.0,STARLINK-4290,PAYLOAD,2022-07-28 14:00:01,15.73231509,0.0002292,53.219,275.4781,26.0763,210.9726,-0.00036526,-0.00051645,0.0,0 STARLINK-4290,1 53006U 22076W   22209.58334491 -.00051645  00000-0 -36526-3 0  9991,2 53006  53.2190 275.4781 0002292  26.0763 210.9726 15.73231509  1306,6727.805,91.531,351.212,348.12800000000016,0.0
53006.0,STARLINK-4290,PAYLOAD,2022-07-28 22:00:00,15.73188517,0.0002108,53.219,273.8269,24.0551,301.9514,0.0001308,0.00017767,0.0,0 STARLINK-4290,1 53006U 22076W   22209.91667824  .00017767  00000-0  13080-3 0  9992,2 53006  53.2190 273.8269 0002108  24.0551 301.9514 15.73188517  1304,6727.928000000001,91.534,351.211,348.375,0.0
53006.0,STARLINK-4290,PAYLOAD,2022-07-29 00:00:00,15.73169362,0.0002055,53.219,273.4141,24.1096,54.1331,0.00049303,0.00069056,0.0,0 STARLINK-4290,1 53006U 22076W   22210.00001157  .00069056  00000-0  49303-3 0  9990,2 53006  53.2190 273.4141 0002055  24.1096  54.1331 15.73169362  3870,6727.983,91.535,351.23,348.465,0.0
53006.0,STARLINK-4290,PAYLOAD,2022-07-29 14:00:01,15.73074741,0.0002914,53.2188,270.5302,22.7343,120.9422,-0.0001986,-0.00028258,0.0,0 STARLINK-4290,1 53006U 22076W   22210.58334491 -.00028258  00000-0 -19860-3 0  9999,2 53006  53.2188 270.5302 0002914  22.7343 120.9422 15.73074741  1302,6728.252,91.54,352.07800000000015,348.157,0.0
53006.0,STARLINK-4290,PAYLOAD,2022-07-29 22:00:00,15.730443300000005,0.0002663999999999,53.2185,268.8794,21.3041,211.1402,0.00010907,0.00014613,0.0,0 STARLINK-4290,1 53006U 22076W   22210.91667824  .00014613  00000-0  10907-3 0  9996,2 53006  53.2185 268.8794 0002664  21.3041 211.1402 15.73044330  1308,6728.339,91.542,351.996,348.412,0.0
53006.0,STARLINK-4290,PAYLOAD,2022-07-30 06:00:00,15.73013539,0.0002582,53.2185,267.2305,20.4498,300.7458,0.0019722999999999,0.00283464,0.0,0 STARLINK-4290,1 53006U 22076W   22211.25001157  .00283464  00000-0  19723-2 0  9991,2 53006  53.2185 267.2305 0002582  20.4498 300.7458 15.73013539  4074,6728.427,91.544,352.029,348.555,0.0
53006.0,STARLINK-4290,PAYLOAD,2022-07-30 14:00:01,15.73222068,0.0002791999999999,53.2183,265.5831,15.0458,34.9512,0.0013348,0.00191231,0.0,0 STARLINK-4290,1 53006U 22076W   22211.58334491  .00191231  00000-0  13348-2 0  9994,2 53006  53.2183 265.5831 0002792  15.0458  34.9512 15.73222068  1305,6727.831999999999,91.532,351.576,347.819,0.0
53006.0,STARLINK-4290,PAYLOAD,2022-07-30 22:00:00,15.73341894,0.0002672,53.2186,263.9315,18.7223,120.3123,0.00015224,0.00020929,0.0,0 STARLINK-4290,1 53006U 22076W   22211.91667824  .00020929  00000-0  15224-3 0  9991,2 53006  53.2186 263.9315 0002672  18.7223 120.3123 15.73341894  4179,6727.491,91.525,351.153,347.55800000000005,0.0
53006.0,STARLINK-4290,PAYLOAD,2022-07-31 14:00:01,15.73298466,0.0003011,53.2184,260.6337,21.1749,296.0716,-0.00022129,-0.00031702,0.0,0 STARLINK-4290,1 53006U 22076W   22212.58334491 -.00031702  00000-0 -22129-3 0  9991,2 53006  53.2184 260.6337 0003011  21.1749 296.0716 15.73298466  1301,6727.614000000001,91.527,351.505,347.454,0.0
53006.0,STARLINK-4290,PAYLOAD,2022-07-31 22:00:00,15.73276746,0.0002683999999999,53.2182,258.982,18.2555,28.0315,-0.00047504,-0.00066994,0.0,0 STARLINK-4290,1 53006U 22076W   22212.91667824 -.00066994  00000-0 -47504-3 0  9992,2 53006  53.2182 258.9820 0002684  18.2555  28.0315 15.73276746  1308,6727.676,91.529,351.347,347.736,0.0
53006.0,STARLINK-4290,PAYLOAD,2022-08-01 14:00:01,15.73232355,0.000291,53.2182,255.6849,13.3129,210.9493,-0.0001229,-0.00017862,0.0,0 STARLINK-4290,1 53006U 22076W   22213.58334491 -.00017862  00000-0 -12290-3 0  9991,2 53006  53.2182 255.6849 0002910  13.3129 210.9493 15.73232355  1305,6727.803000000001,91.531,351.626,347.71,0.0
53006.0,STARLINK-4290,PAYLOAD,2022-08-01 22:00:00,15.73185509,0.0002703999999999,53.2186,254.0333,13.4721,299.7508,0.00036814,0.00051335,0.0,0 STARLINK-4290,1 53006U 22076W   22213.91667824  .00051335  00000-0  36814-3 0  9996,2 53006  53.2186 254.0333 0002704  13.4721 299.7508 15.73185509  1300,6727.936,91.534,351.621,347.982,0.0
53006.0,STARLINK-4290,PAYLOAD,2022-08-02 14:00:01,15.73183126,0.0002995,53.2185,250.7361,10.7284,120.4033,0.00013817,0.00018802,0.0,0 STARLINK-4290,1 53006U 22076W   22214.58334491  .00018802  00000-0  13817-3 0  9991,2 53006  53.2185 250.7361 0002995  10.7284 120.4033 15.73183126  1305,6727.943,91.534,351.8230000000001,347.793,0.0
53006.0,STARLINK-4290,PAYLOAD,2022-08-03 14:00:01,15.73156204,0.0003017,53.2184,245.7878,6.843,31.0889,0.00041961,0.00058579,0.0,0 STARLINK-4290,1 53006U 22076W   22215.58334491  .00058579  00000-0  41961-3 0  9998,2 53006  53.2184 245.7878 0003017   6.8430  31.0889 15.73156204  4751,6728.02,91.536,351.915,347.855,0.0
53006.0,STARLINK-4290,PAYLOAD,2022-08-03 22:00:01,15.73169318,0.0002768,53.2189,244.1363,7.903,119.0064,0.00049192,0.00068902,0.0,0 STARLINK-4290,1 53006U 22076W   22215.91668981  .00068902  00000-0  49192-3 0  9994,2 53006  53.2189 244.1363 0002768   7.9030 119.0064 15.73169318  1308,6727.983,91.535,351.71,347.985,0.0
53006.0,STARLINK-4290,PAYLOAD,2022-08-04 06:00:00,15.73241584,0.0002931999999999,53.2193,242.4879,11.8851,203.8741,-0.00026521,-0.00037752,0.0,0 STARLINK-4290,1 53006U 22076W   22216.25001157 -.00037752  00000-0 -26521-3 0  9990,2 53006  53.2193 242.4879 0002932  11.8851 203.8741 15.73241584  4868,6727.776999999999,91.531,351.61400000000015,347.6690000000001,0.0
53006.0,STARLINK-4290,PAYLOAD,2022-08-04 14:00:01,15.73192064,0.0003177,53.219,240.8393,13.3277,291.3967,5.3632e-05,6.909e-05,0.0,0 STARLINK-4290,1 53006U 22076W   22216.58334491  .00006909  00000-0  53632-4 0  9998,2 53006  53.2190 240.8393 0003177  13.3277 291.3967 15.73192064  1305,6727.918000000002,91.534,351.92,347.645,0.0
